STARLINK-3631           
1 51790U 22017Y   26008.09858590 -.00000815  00000+0 -33125-4 0  9997
2 51790  53.2181 261.1240 0001460  89.1687 270.9473 15.08845781214826
STARLINK-3602           
1 51791U 22017Z   26008.10961884 -.00000075  00000+0  13410-4 0  9993
2 51791  53.2171 261.0764 0001433 100.8949 259.2205 15.08845595214778
STARLINK-3626           
1 51792U 22017AA  26008.09122996 -.00003081  00000+0 -17562-3 0  9997
2 51792  53.2174 261.1538 0001387  98.5506 261.5644 15.08828634214826
STARLINK-3633           
1 51793U 22017AB  26008.10690085 -.00000341  00000+0 -33478-5 0  9991
2 51793  53.2171 261.0985 0001398  91.2845 268.8307 15.08839270214821
STARLINK-3573           
1 51794U 22017AC  26008.08386468  .00000844  00000+0  71078-4 0  9999
2 51794  53.2173 261.1913 0001257 103.7917 256.3216 15.08852144214779
STARLINK-3586           
1 51795U 22017AD  26008.10591317  .00006823  00000+0  44561-3 0  9993
2 51795  53.2171 261.2907 0001489  95.4433 264.6729 15.08904466214775
STARLINK-3634           
1 51798U 22017AG  26008.06914260  .00000210  00000+0  31276-4 0  9991
2 51798  53.2160 261.2589 0001425  91.1153 269.0002 15.08840235214815
STARLINK-3637           
1 51799U 22017AH  26008.08018455 -.00000097  00000+0  12014-4 0  9998
2 51799  53.2174 261.2085 0001469  87.5883 272.5277 15.08843755214777
STARLINK-3592           
1 51801U 22017AK  26008.07651372 -.00001392  00000+0 -69373-4 0  9992
2 51801  53.2164 261.2240 0001394  80.0324 280.0826 15.08836172214777
STARLINK-3544           
1 51803U 22017AM  26008.13170809 -.00001094  00000+0 -50667-4 0  9997
2 51803  53.2173 260.9781 0001346  88.6227 271.4919 15.08832025214778
STARLINK-3601           
1 51804U 22017AN  26008.07834341  .00000099  00000+0  24325-4 0  9993
2 51804  53.2171 241.2172 0001443  93.4717 266.6441 15.08837149215004
STARLINK-3605           
1 51805U 22017AP  26008.08203447 -.00000446  00000+0 -99100-5 0  9994
2 51805  53.2169 241.2777 0001404  86.0731 274.0422 15.08839430215090
STARLINK-3606           
1 51807U 22017AR  26008.09582180 -.00000340  00000+0 -32559-5 0  9999
2 51807  53.2172 251.1387 0001371 100.8221 259.2926 15.08839699214961
STARLINK-3609           
1 51808U 22017AS  26007.94862458  .00005692  00000+0  37545-3 0  9993
2 51808  53.2154 251.7988 0001321  96.9765 263.1378 15.08838021214792
STARLINK-3607           
1 51809U 22017AT  26008.08845926 -.00000734  00000+0 -28021-4 0  9995
2 51809  53.2169 251.1329 0001449  91.2442 268.8717 15.08840909214914
STARLINK-3613           
1 51810U 22017AU  26007.86124961 -.00002012  00000+0 -10829-3 0  9998
2 51810  53.2176 242.4108 0001498  89.7619 270.3545 15.08851773214899
