[{"OBJECT_NAME":"STARLINK-3631","OBJECT_ID":"2022-017Y","EPOCH":"2026-01-08T02:21:57.821760","MEAN_MOTION":15.08845781,"ECCENTRICITY":0.00014605,"INCLINATION":53.2181,"RA_OF_ASC_NODE":261.124,"ARG_OF_PERICENTER":89.1687,"MEAN_ANOMALY":270.9473,"EPHEMERIS_TYPE":0,"CLASSIFICATION_TYPE":"U","NORAD_CAT_ID":51790,"ELEMENT_SET_NO":999,"REV_AT_EPOCH":21482,"BSTAR":-3.3125208e-5,"MEAN_MOTION_DOT":-8.15e-6,"MEAN_MOTION_DDOT":0},{"OBJECT_NAME":"STARLINK-3602","OBJECT_ID":"2022-017Z","EPOCH":"2026-01-08T02:37:51.067776","MEAN_MOTION":15.08845595,"ECCENTRICITY":0.00014331,"INCLINATION":53.2171,"RA_OF_ASC_NODE":261.0764,"ARG_OF_PERICENTER":100.8949,"MEAN_ANOMALY":259.2205,"EPHEMERIS_TYPE":0,"CLASSIFICATION_TYPE":"U","NORAD_CAT_ID":51791,"ELEMENT_SET_NO":999,"REV_AT_EPOCH":21477,"BSTAR":1.3409992e-5,"MEAN_MOTION_DOT":-7.5e-7,"MEAN_MOTION_DDOT":0},{"OBJECT_NAME":"STARLINK-3626","OBJECT_ID":"2022-017AA","EPOCH":"2026-01-08T02:11:22.268544","MEAN_MOTION":15.08828634,"ECCENTRICITY":0.00013877,"INCLINATION":53.2174,"RA_OF_ASC_NODE":261.1538,"ARG_OF_PERICENTER":98.5506,"MEAN_ANOMALY":261.5644,"EPHEMERIS_TYPE":0,"CLASSIFICATION_TYPE":"U","NORAD_CAT_ID":51792,"ELEMENT_SET_NO":999,"REV_AT_EPOCH":21482,"BSTAR":-0.00017562453,"MEAN_MOTION_DOT":-3.081e-5,"MEAN_MOTION_DDOT":0},{"OBJECT_NAME":"STARLINK-3633","OBJECT_ID":"2022-017AB","EPOCH":"2026-01-08T02:33:56.233440","MEAN_MOTION":15.0883927,"ECCENTRICITY":0.00013988,"INCLINATION":53.2171,"RA_OF_ASC_NODE":261.0985,"ARG_OF_PERICENTER":91.2845,"MEAN_ANOMALY":268.8307,"EPHEMERIS_TYPE":0,"CLASSIFICATION_TYPE":"U","NORAD_CAT_ID":51793,"ELEMENT_SET_NO":999,"REV_AT_EPOCH":21482,"BSTAR":-3.347844e-6,"MEAN_MOTION_DOT":-3.41e-6,"MEAN_MOTION_DDOT":0},{"OBJECT_NAME":"STARLINK-3573","OBJECT_ID":"2022-017AC","EPOCH":"2026-01-08T02:00:45.908352","MEAN_MOTION":15.08852144,"ECCENTRICITY":0.00012577,"INCLINATION":53.2173,"RA_OF_ASC_NODE":261.1913,"ARG_OF_PERICENTER":103.7917,"MEAN_ANOMALY":256.3216,"EPHEMERIS_TYPE":0,"CLASSIFICATION_TYPE":"U","NORAD_CAT_ID":51794,"ELEMENT_SET_NO":999,"REV_AT_EPOCH":21477,"BSTAR":7.107813e-5,"MEAN_MOTION_DOT":8.44e-6,"MEAN_MOTION_DDOT":0},{"OBJECT_NAME":"STARLINK-3586","OBJECT_ID":"2022-017AD","EPOCH":"2026-01-08T02:32:30.897888","MEAN_MOTION":15.08904466,"ECCENTRICITY":0.00014895,"INCLINATION":53.2171,"RA_OF_ASC_NODE":261.2907,"ARG_OF_PERICENTER":95.4433,"MEAN_ANOMALY":264.6729,"EPHEMERIS_TYPE":0,"CLASSIFICATION_TYPE":"U","NORAD_CAT_ID":51795,"ELEMENT_SET_NO":999,"REV_AT_EPOCH":21477,"BSTAR":0.00044561233,"MEAN_MOTION_DOT":6.823e-5,"MEAN_MOTION_DDOT":0},{"OBJECT_NAME":"STARLINK-3634","OBJECT_ID":"2022-017AG","EPOCH":"2026-01-08T01:39:33.920640","MEAN_MOTION":15.08840235,"ECCENTRICITY":0.00014252,"INCLINATION":53.216,"RA_OF_ASC_NODE":261.2589,"ARG_OF_PERICENTER":91.1153,"MEAN_ANOMALY":269.0002,"EPHEMERIS_TYPE":0,"CLASSIFICATION_TYPE":"U","NORAD_CAT_ID":51798,"ELEMENT_SET_NO":999,"REV_AT_EPOCH":21481,"BSTAR":3.1275654e-5,"MEAN_MOTION_DOT":2.1e-6,"MEAN_MOTION_DDOT":0},{"OBJECT_NAME":"STARLINK-3637","OBJECT_ID":"2022-017AH","EPOCH":"2026-01-08T01:55:27.945120","MEAN_MOTION":15.08843755,"ECCENTRICITY":0.00014694,"INCLINATION":53.2174,"RA_OF_ASC_NODE":261.2085,"ARG_OF_PERICENTER":87.5883,"MEAN_ANOMALY":272.5277,"EPHEMERIS_TYPE":0,"CLASSIFICATION_TYPE":"U","NORAD_CAT_ID":51799,"ELEMENT_SET_NO":999,"REV_AT_EPOCH":21477,"BSTAR":1.2014002e-5,"MEAN_MOTION_DOT":-9.7e-7,"MEAN_MOTION_DDOT":0},{"OBJECT_NAME":"STARLINK-3592","OBJECT_ID":"2022-017AK","EPOCH":"2026-01-08T01:50:10.785408","MEAN_MOTION":15.08836172,"ECCENTRICITY":0.00013947,"INCLINATION":53.2164,"RA_OF_ASC_NODE":261.224,"ARG_OF_PERICENTER":80.0324,"MEAN_ANOMALY":280.0826,"EPHEMERIS_TYPE":0,"CLASSIFICATION_TYPE":"U","NORAD_CAT_ID":51801,"ELEMENT_SET_NO":999,"REV_AT_EPOCH":21477,"BSTAR":-6.9372506e-5,"MEAN_MOTION_DOT":-1.392e-5,"MEAN_MOTION_DDOT":0},{"OBJECT_NAME":"STARLINK-3544","OBJECT_ID":"2022-017AM","EPOCH":"2026-01-08T03:09:39.578976","MEAN_MOTION":15.08832025,"ECCENTRICITY":0.00013463,"INCLINATION":53.2173,"RA_OF_ASC_NODE":260.9781,"ARG_OF_PERICENTER":88.6227,"MEAN_ANOMALY":271.4919,"EPHEMERIS_TYPE":0,"CLASSIFICATION_TYPE":"U","NORAD_CAT_ID":51803,"ELEMENT_SET_NO":999,"REV_AT_EPOCH":21477,"BSTAR":-5.0666938e-5,"MEAN_MOTION_DOT":-1.094e-5,"MEAN_MOTION_DDOT":0},{"OBJECT_NAME":"STARLINK-3601","OBJECT_ID":"2022-017AN","EPOCH":"2026-01-08T01:52:48.870624","MEAN_MOTION":15.08837149,"ECCENTRICITY":0.00014436,"INCLINATION":53.2171,"RA_OF_ASC_NODE":241.2172,"ARG_OF_PERICENTER":93.4717,"MEAN_ANOMALY":266.6441,"EPHEMERIS_TYPE":0,"CLASSIFICATION_TYPE":"U","NORAD_CAT_ID":51804,"ELEMENT_SET_NO":999,"REV_AT_EPOCH":21500,"BSTAR":2.4324609e-5,"MEAN_MOTION_DOT":9.9e-7,"MEAN_MOTION_DDOT":0},{"OBJECT_NAME":"STARLINK-3605","OBJECT_ID":"2022-017AP","EPOCH":"2026-01-08T01:58:07.778208","MEAN_MOTION":15.0883943,"ECCENTRICITY":0.00014047,"INCLINATION":53.2169,"RA_OF_ASC_NODE":241.2777,"ARG_OF_PERICENTER":86.0731,"MEAN_ANOMALY":274.0422,"EPHEMERIS_TYPE":0,"CLASSIFICATION_TYPE":"U","NORAD_CAT_ID":51805,"ELEMENT_SET_NO":999,"REV_AT_EPOCH":21509,"BSTAR":-9.909972e-6,"MEAN_MOTION_DOT":-4.46e-6,"MEAN_MOTION_DDOT":0},{"OBJECT_NAME":"STARLINK-3606","OBJECT_ID":"2022-017AR","EPOCH":"2026-01-08T02:17:59.003520","MEAN_MOTION":15.08839699,"ECCENTRICITY":0.00013719,"INCLINATION":53.2172,"RA_OF_ASC_NODE":251.1387,"ARG_OF_PERICENTER":100.8221,"MEAN_ANOMALY":259.2926,"EPHEMERIS_TYPE":0,"CLASSIFICATION_TYPE":"U","NORAD_CAT_ID":51807,"ELEMENT_SET_NO":999,"REV_AT_EPOCH":21496,"BSTAR":-3.255936e-6,"MEAN_MOTION_DOT":-3.4e-6,"MEAN_MOTION_DDOT":0},{"OBJECT_NAME":"STARLINK-3609","OBJECT_ID":"2022-017AS","EPOCH":"2026-01-07T22:46:01.163712","MEAN_MOTION":15.08838021,"ECCENTRICITY":0.0001321,"INCLINATION":53.2154,"RA_OF_ASC_NODE":251.7988,"ARG_OF_PERICENTER":96.9765,"MEAN_ANOMALY":263.1378,"EPHEMERIS_TYPE":0,"CLASSIFICATION_TYPE":"U","NORAD_CAT_ID":51808,"ELEMENT_SET_NO":999,"REV_AT_EPOCH":21479,"BSTAR":0.00037545,"MEAN_MOTION_DOT":5.692e-5,"MEAN_MOTION_DDOT":0},{"OBJECT_NAME":"STARLINK-3607","OBJECT_ID":"2022-017AT","EPOCH":"2026-01-08T02:07:22.880064","MEAN_MOTION":15.08840909,"ECCENTRICITY":0.00014494,"INCLINATION":53.2169,"RA_OF_ASC_NODE":251.1329,"ARG_OF_PERICENTER":91.2442,"MEAN_ANOMALY":268.8717,"EPHEMERIS_TYPE":0,"CLASSIFICATION_TYPE":"U","NORAD_CAT_ID":51809,"ELEMENT_SET_NO":999,"REV_AT_EPOCH":21491,"BSTAR":-2.8020664e-5,"MEAN_MOTION_DOT":-7.34e-6,"MEAN_MOTION_DDOT":0},{"OBJECT_NAME":"STARLINK-3613","OBJECT_ID":"2022-017AU","EPOCH":"2026-01-07T20:40:11.966304","MEAN_MOTION":15.08851773,"ECCENTRICITY":0.00014982,"INCLINATION":53.2176,"RA_OF_ASC_NODE":242.4108,"ARG_OF_PERICENTER":89.7619,"MEAN_ANOMALY":270.3545,"EPHEMERIS_TYPE":0,"CLASSIFICATION_TYPE":"U","NORAD_CAT_ID":51810,"ELEMENT_SET_NO":999,"REV_AT_EPOCH":21489,"BSTAR":-0.00010829137,"MEAN_MOTION_DOT":-2.012e-5,"MEAN_MOTION_DDOT":0}]
